[{"OBJECT_NAME":"BUFENG 1B","OBJECT_ID":"2019-032B","EPOCH":"2026-03-09T19:57:27.457920","MEAN_MOTION":15.25619535,"ECCENTRICITY":0.00242037,"INCLINATION":44.9701,"RA_OF_ASC_NODE":192.0248,"ARG_OF_PERICENTER":123.8847,"MEAN_ANOMALY":236.4342,"EPHEMERIS_TYPE":0,"CLASSIFICATION_TYPE":"U","NORAD_CAT_ID":44311,"ELEMENT_SET_NO":999,"REV_AT_EPOCH":37256,"BSTAR":0.00059375374,"MEAN_MOTION_DOT":0.00015236,"MEAN_MOTION_DDOT":0},{"OBJECT_NAME":"STARLINK-31869","OBJECT_ID":"2024-124P","EPOCH":"2026-03-09T22:18:35.186688","MEAN_MOTION":15.30191856,"ECCENTRICITY":6.525e-5,"INCLINATION":53.1603,"RA_OF_ASC_NODE":321.2975,"ARG_OF_PERICENTER":96.6584,"MEAN_ANOMALY":263.4491,"EPHEMERIS_TYPE":0,"CLASSIFICATION_TYPE":"U","NORAD_CAT_ID":60196,"ELEMENT_SET_NO":999,"REV_AT_EPOCH":9433,"BSTAR":1.9803964e-5,"MEAN_MOTION_DOT":2.28e-6,"MEAN_MOTION_DDOT":0}]
